{
  "norad_id": 49293,
  "name": "ONEWEB-0367",
  "history": [
    {
      "epoch": "2026-03-28T20:39:37.681920",
      "apogee_km": 1183.1938022555732,
      "perigee_km": 1180.3580789115613,
      "latitude_deg": -37.59763185199445,
      "longitude_deg": -88.05813119979575,
      "semi_major_axis_km": 7559.912940583567,
      "eccentricity": 0.00018755,
      "inclination_deg": 87.9147,
      "raan_deg": 290.4778,
      "arg_perigee_deg": 85.7308,
      "mean_anomaly_deg": 274.4039,
      "mean_motion_rev_day": 13.2077114
    },
    {
      "epoch": "2026-03-29T02:06:53.796096",
      "apogee_km": 1183.192214690257,
      "perigee_km": 1180.3557360922896,
      "latitude_deg": 69.28411553065365,
      "longitude_deg": -66.24022655980662,
      "semi_major_axis_km": 7559.910975391273,
      "eccentricity": 0.0001876,
      "inclination_deg": 87.9147,
      "raan_deg": 290.4324,
      "arg_perigee_deg": 85.7072,
      "mean_anomaly_deg": 274.4275,
      "mean_motion_rev_day": 13.20771655
    }
  ]
}